IRIDIUM 159             
1 43578U 18061K   25262.50439167  .00000265  00000+0  87625-4 0  9999
2 43578  86.4042 169.8378 0002019  83.1904 276.9522 14.34220399374589
IRIDIUM 180             
1 43922U 19002A   25262.57364551 -.00000001  00000+0 -74588-5 0  9994
2 43922  86.3924 106.7487 0001987  90.5489 269.5935 14.34217365350202
IRIDIUM 176             
1 43923U 19002B   25262.30767587  .00000807  00000+0  12415-3 0  9993
2 43923  86.6047 106.8433 0002969  93.3026 266.8531 14.72249999359394
IRIDIUM 168             
1 43924U 19002C   25262.56730285 -.00000010  00000+0 -10659-4 0  9994
2 43924  86.3926 106.8212 0002030  89.0767 271.0662 14.34217319350186
IRIDIUM 173             
1 43925U 19002D   25262.62438513  .00000055  00000+0  12725-4 0  9994
2 43925  86.3920 106.6974 0002203  92.5625 267.5823 14.34217809350170
IRIDIUM 169             
1 43926U 19002E   25262.61074142  .00000171  00000+0  49483-4 0  9998
2 43926  86.4245 138.3304 0003290  98.8085 261.3486 14.38608161351321
IRIDIUM 172             
1 43927U 19002F   25262.61804234  .00000007  00000+0 -46115-5 0  9991
2 43927  86.3923 106.7069 0001784  92.2039 267.9361 14.34217650350186
IRIDIUM 175             
1 43928U 19002G   25262.43874192  .00000885  00000+0  13633-3 0  9992
2 43928  86.1480  53.9197 0002802  74.5787 285.5738 14.72249559359406
